{
  "type": "FeatureCollection",
  "features": [
    {
      "type": "Feature",
      "properties": {
        "norad_id": 30680,
        "name": "FENGYUN 1C DEB",
        "group": "fengyun-1c-debris",
        "lat": -19.247220569834532,
        "lon": 27.524665885439717,
        "alt_km": 1291.8717123936049,
        "timestamp": "2025-12-07T09:35:10.068392+00:00",
        "meta_object_name": "FENGYUN 1C DEB",
        "meta_object_id": "1999-025AQN",
        "meta_epoch": "2025-12-06T15:58:49.336320",
        "meta_mean_motion": 13.56030211,
        "meta_eccentricity": 0.03413764,
        "meta_inclination": 99.6277,
        "meta_ra_of_asc_node": 23.4093,
        "meta_arg_of_pericenter": 182.7077,
        "meta_mean_anomaly": 177.2221,
        "meta_ephemeris_type": 0,
        "meta_classification_type": "U",
        "meta_norad_cat_id": 30680,
        "meta_element_set_no": 999,
        "meta_rev_at_epoch": 92171,
        "meta_bstar": 0.0065202258,
        "meta_mean_motion_dot": 6.606e-05,
        "meta_mean_motion_ddot": 0,
        "tle_line1": "1 30680U 99025AQN 25340.66584880  .00006606  00000+0  65202-2 0  9995",
        "tle_line2": "2 30680  99.6277  23.4093 0341376 182.7077 177.2221 13.56030211921710"
      },
      "geometry": {
        "type": "Point",
        "coordinates": [
          27.524665885439717,
          -19.247220569834532
        ]
      }
    },
    {
      "type": "Feature",
      "properties": {
        "norad_id": 30683,
        "name": "FENGYUN 1C DEB",
        "group": "fengyun-1c-debris",
        "lat": 22.639072982389465,
        "lon": 176.6970858964491,
        "alt_km": 877.2597607272273,
        "timestamp": "2025-12-07T09:35:10.068403+00:00",
        "meta_object_name": "FENGYUN 1C DEB",
        "meta_object_id": "1999-025AQR",
        "meta_epoch": "2025-12-06T13:02:53.171808",
        "meta_mean_motion": 14.00351086,
        "meta_eccentricity": 0.01384085,
        "meta_inclination": 99.4269,
        "meta_ra_of_asc_node": 351.8419,
        "meta_arg_of_pericenter": 241.5725,
        "meta_mean_anomaly": 285.1844,
        "meta_ephemeris_type": 0,
        "meta_classification_type": "U",
        "meta_norad_cat_id": 30683,
        "meta_element_set_no": 999,
        "meta_rev_at_epoch": 95464,
        "meta_bstar": 0.0023292805,
        "meta_mean_motion_dot": 3.7e-05,
        "meta_mean_motion_ddot": 0,
        "tle_line1": "1 30683U 99025AQR 25340.54367097  .00003700  00000+0  23293-2 0  9990",
        "tle_line2": "2 30683  99.4269 351.8419 0138408 241.5725 285.1844 14.00351086954640"
      },
      "geometry": {
        "type": "Point",
        "coordinates": [
          176.6970858964491,
          22.639072982389465
        ]
      }
    },
    {
      "type": "Feature",
      "properties": {
        "norad_id": 30684,
        "name": "FENGYUN 1C DEB",
        "group": "fengyun-1c-debris",
        "lat": -73.13324198248219,
        "lon": 169.21312810589407,
        "alt_km": 863.8542847434583,
        "timestamp": "2025-12-07T09:35:10.068413+00:00",
        "meta_object_name": "FENGYUN 1C DEB",
        "meta_object_id": "1999-025AQS",
        "meta_epoch": "2025-12-01T13:31:37.536960",
        "meta_mean_motion": 13.66771783,
        "meta_eccentricity": 0.02336022,
        "meta_inclination": 99.5313,
        "meta_ra_of_asc_node": 17.113,
        "meta_arg_of_pericenter": 298.0542,
        "meta_mean_anomaly": 59.7156,
        "meta_ephemeris_type": 0,
        "meta_classification_type": "U",
        "meta_norad_cat_id": 30684,
        "meta_element_set_no": 999,
        "meta_rev_at_epoch": 93476,
        "meta_bstar": 0.00093442149,
        "meta_mean_motion_dot": 8.93e-06,
        "meta_mean_motion_ddot": 0,
        "tle_line1": "1 30684U 99025AQS 25335.56362890  .00000893  00000+0  93442-3 0  9997",
        "tle_line2": "2 30684  99.5313  17.1130 0233602 298.0542  59.7156 13.66771783934763"
      },
      "geometry": {
        "type": "Point",
        "coordinates": [
          169.21312810589407,
          -73.13324198248219
        ]
      }
    },
    {
      "type": "Feature",
      "properties": {
        "norad_id": 30686,
        "name": "FENGYUN 1C DEB",
        "group": "fengyun-1c-debris",
        "lat": -55.41937225193956,
        "lon": -171.9683070347913,
        "alt_km": 754.3468144142926,
        "timestamp": "2025-12-07T09:35:10.068423+00:00",
        "meta_object_name": "FENGYUN 1C DEB",
        "meta_object_id": "1999-025AQU",
        "meta_epoch": "2025-12-06T19:45:38.939904",
        "meta_mean_motion": 14.73784682,
        "meta_eccentricity": 0.01441164,
        "meta_inclination": 99.0326,
        "meta_ra_of_asc_node": 174.0488,
        "meta_arg_of_pericenter": 138.9955,
        "meta_mean_anomaly": 349.6549,
        "meta_ephemeris_type": 0,
        "meta_classification_type": "U",
        "meta_norad_cat_id": 30686,
        "meta_element_set_no": 999,
        "meta_rev_at_epoch": 99514,
        "meta_bstar": 0.0013681126,
        "meta_mean_motion_dot": 0.00010514,
        "meta_mean_motion_ddot": 0,
        "tle_line1": "1 30686U 99025AQU 25340.82336736  .00010514  00000+0  13681-2 0  9991",
        "tle_line2": "2 30686  99.0326 174.0488 0144116 138.9955 349.6549 14.73784682995141"
      },
      "geometry": {
        "type": "Point",
        "coordinates": [
          -171.9683070347913,
          -55.41937225193956
        ]
      }
    },
    {
      "type": "Feature",
      "properties": {
        "norad_id": 30688,
        "name": "FENGYUN 1C DEB",
        "group": "fengyun-1c-debris",
        "lat": -30.28395345301625,
        "lon": 59.88507055131428,
        "alt_km": 778.2406430051024,
        "timestamp": "2025-12-07T09:35:10.068433+00:00",
        "meta_object_name": "FENGYUN 1C DEB",
        "meta_object_id": "1999-025AQW",
        "meta_epoch": "2025-12-06T16:00:47.946240",
        "meta_mean_motion": 14.3261966,
        "meta_eccentricity": 0.00148833,
        "meta_inclination": 98.701,
        "meta_ra_of_asc_node": 54.0195,
        "meta_arg_of_pericenter": 335.563,
        "meta_mean_anomaly": 179.7465,
        "meta_ephemeris_type": 0,
        "meta_classification_type": "U",
        "meta_norad_cat_id": 30688,
        "meta_element_set_no": 999,
        "meta_rev_at_epoch": 97173,
        "meta_bstar": 0.0028605439,
        "meta_mean_motion_dot": 7.743e-05,
        "meta_mean_motion_ddot": 0,
        "tle_line1": "1 30688U 99025AQW 25340.66722160  .00007743  00000+0  28605-2 0  9997",
        "tle_line2": "2 30688  98.7010  54.0195 0014883 335.5630 179.7465 14.32619660971739"
      },
      "geometry": {
        "type": "Point",
        "coordinates": [
          59.88507055131428,
          -30.28395345301625
        ]
      }
    },
    {
      "type": "Feature",
      "properties": {
        "norad_id": 30689,
        "name": "FENGYUN 1C DEB",
        "group": "fengyun-1c-debris",
        "lat": 4.521307468496743,
        "lon": -32.90472673516326,
        "alt_km": 887.3090054695567,
        "timestamp": "2025-12-07T09:35:10.068443+00:00",
        "meta_object_name": "FENGYUN 1C DEB",
        "meta_object_id": "1999-025AQX",
        "meta_epoch": "2025-12-06T21:57:28.931616",
        "meta_mean_motion": 14.11754712,
        "meta_eccentricity": 0.01116317,
        "meta_inclination": 98.7077,
        "meta_ra_of_asc_node": 327.3193,
        "meta_arg_of_pericenter": 119.7273,
        "meta_mean_anomaly": 305.1119,
        "meta_ephemeris_type": 0,
        "meta_classification_type": "U",
        "meta_norad_cat_id": 30689,
        "meta_element_set_no": 999,
        "meta_rev_at_epoch": 96808,
        "meta_bstar": 0.00058941378,
        "meta_mean_motion_dot": 1.097e-05,
        "meta_mean_motion_ddot": 0,
        "tle_line1": "1 30689U 99025AQX 25340.91491819  .00001097  00000+0  58941-3 0  9993",
        "tle_line2": "2 30689  98.7077 327.3193 0111631 119.7273 305.1119 14.11754712968081"
      },
      "geometry": {
        "type": "Point",
        "coordinates": [
          -32.90472673516326,
          4.521307468496743
        ]
      }
    },
    {
      "type": "Feature",
      "properties": {
        "norad_id": 30690,
        "name": "FENGYUN 1C DEB",
        "group": "fengyun-1c-debris",
        "lat": -53.90275572767117,
        "lon": 78.98564426501613,
        "alt_km": 954.2928344485663,
        "timestamp": "2025-12-07T09:35:10.068454+00:00",
        "meta_object_name": "FENGYUN 1C DEB",
        "meta_object_id": "1999-025AQY",
        "meta_epoch": "2025-12-06T17:22:28.245792",
        "meta_mean_motion": 14.02290311,
        "meta_eccentricity": 0.01046946,
        "meta_inclination": 99.1594,
        "meta_ra_of_asc_node": 271.0907,
        "meta_arg_of_pericenter": 92.4348,
        "meta_mean_anomaly": 333.5697,
        "meta_ephemeris_type": 0,
        "meta_classification_type": "U",
        "meta_norad_cat_id": 30690,
        "meta_element_set_no": 999,
        "meta_rev_at_epoch": 95623,
        "meta_bstar": 0.0020520943,
        "meta_mean_motion_dot": 3.257e-05,
        "meta_mean_motion_ddot": 0,
        "tle_line1": "1 30690U 99025AQY 25340.72393803  .00003257  00000+0  20521-2 0  9990",
        "tle_line2": "2 30690  99.1594 271.0907 0104694  92.4348 333.5697 14.02290311956231"
      },
      "geometry": {
        "type": "Point",
        "coordinates": [
          78.98564426501613,
          -53.90275572767117
        ]
      }
    }
  ]
}